satname,norad_id,inclination_deg,eccentricity,mean_motion_rev_per_day,perigee_km,apogee_km,l1,l2
STARLINK-1452,45669,53.0333,0.0006428,15.40408183,440.51787163976405,449.28957279224596,1 45669U 20035N   26039.91670139  .00076577  00000+0  18553-2 0  9991,2 45669  53.0333 158.3267 0006428 295.0599  75.5839 15.40408183  5860
STARLINK-1453,45670,53.0485,0.0005557,15.46665237,422.708162448851,430.2708243336074,1 45670U 20035P   26039.91670139  .00074237  00000+0  14575-2 0  9994,2 45670  53.0485 151.2845 0005557 282.5975 316.0268 15.46665237  5832
STARLINK-1454,45671,53.0527,0.0004404,15.45441196,427.08367378224284,433.0803530892772,1 45671U 20035Q   26039.91670139  .00148119  00000+0  29959-2 0  9998,2 45671  53.0527 190.5166 0004404 303.3099 190.5810 15.45441196  5777
STARLINK-1456,45673,53.0499,0.000338,15.43718482,432.8432741317183,437.4490535504747,1 45673U 20035S   26039.91670139  .00122717  00000+0  26421-2 0  9997,2 45673  53.0499 183.9098 0003380 205.2604 347.4315 15.43718482  5823
STARLINK-1457,45674,53.0469,0.0006509,15.70076051,354.29446226195887,363.0644499245009,1 45674U 20035T   26039.91670139  .00177377  00000+0  14148-2 0  9993,2 45674  53.0469 165.6840 0006509 328.7408  34.9630 15.70076051  5874
STARLINK-1458,45675,53.0535,0.0002048,15.39047153,447.527506627659,450.3238715051002,1 45675U 20035U   26039.91670139  .00130544  00000+0  32787-2 0  9998,2 45675  53.0535 191.7155 0002048 343.9026 198.6462 15.39047153  5773
STARLINK-1460,45676,53.0549,0.0001343,15.06399612,546.2826726316134,548.142821573686,1 45676U 20035V   26039.70766231  .00001533  00000+0  12176-3 0  9991,2 45676  53.0549 196.7305 0001343  80.4939 279.6202 15.06399612314324
STARLINK-1392,45677,53.0555,0.0001454,15.06404523,546.1907519646493,548.2046392941393,1 45677U 20035W   26039.71872093  .00002674  00000+0  19834-3 0  9992,2 45677  53.0555 196.6743 0001454  82.6239 277.4916 15.06404523314367
STARLINK-1394,45679,53.0525,0.0004321,15.42435213,435.97897951563846,441.8702841778804,1 45679U 20035Y   26039.66189021  .00068155  00000+0  15470-2 0  9997,2 45679  53.0525 175.0965 0004321 191.6960 168.3945 15.42435213314664
STARLINK-1402,45685,53.0495,0.0005035,15.40501216,441.19375484773445,448.0642802273942,1 45685U 20035AE  26039.56391977  .00057841  00000+0  14032-2 0  9991,2 45685  53.0495 161.5998 0005035 177.1066 182.9968 15.40501216314855
STARLINK-1404,45686,53.1564,0.0001082,15.29373497,476.94216987091204,478.42576952875424,1 45686U 20035AF  26039.69383692  .00006211  00000+0  22726-3 0  9996,2 45686  53.1564 184.3592 0001082  90.8672 269.2452 15.29373497314536
STARLINK-1413,45689,53.1599,0.0001097,15.30191903,474.4874303342822,475.99106108259093,1 45689U 20035AJ  26039.70240780 -.00002038  00000+0 -56730-4 0  9999,2 45689  53.1599 184.2162 0001097 109.2153 250.8967 15.30191903314454
STARLINK-1417,45693,53.0518,0.0005792,15.1085707,529.5816038629837,537.5881424808667,1 45693U 20035AN  26039.70542401  .00033900  00000+0  20221-2 0  9993,2 45693  53.0518 185.4959 0005792 152.7525 207.3771 15.10857070314517
STARLINK-1420,45695,53.0553,0.0001757,15.47521136,422.7851398674384,425.1754038767749,1 45695U 20035AQ  26039.59486704  .00025638  00000+0  49745-3 0  9997,2 45695  53.0553 161.9813 0001757  17.9797 342.1271 15.47521136314846
STARLINK-1422,45696,53.1566,0.000123,15.29366239,476.8623917407567,478.5489290352134,1 45696U 20035AR  26039.70875989  .00009965  00000+0  35708-3 0  9997,2 45696  53.1566 184.1814 0001230  85.9040 274.2100 15.29366239314535
STARLINK-1351,45697,53.0525,0.0001268,15.48995634,418.800975576989,420.5248976409139,1 45697U 20035AS  26039.91670139  .00012906  00000+0  24233-3 0  9991,2 45697  53.0525 159.6998 0001268  74.4020  26.5999 15.48995634  5801
STARLINK-1398,45699,53.0421,0.0004896,15.79186419,329.458917635975,336.0302128646681,1 45699U 20035AU  26039.91670139  .00223422  00000+0  11942-2 0  9992,2 45699  53.0421  85.0283 0004896 352.9350 354.9470 15.79186419  5963
STARLINK-1400,45700,53.0519,0.0003869,15.45432703,427.47284709017185,432.74106626384946,1 45700U 20035AV  26039.91670139  .00069744  00000+0  14301-2 0  9992,2 45700  53.0519 160.5607 0003869 347.1123 165.8220 15.45432703  5781
STARLINK-1403,45701,53.0556,0.0001297,15.06399493,546.3148939111898,548.1113297301954,1 45701U 20035AW  26039.61459301  .00000997  00000+0  85846-4 0  9995,2 45701  53.0556 167.1443 0001297  78.1626 281.9508 15.06399493314761
STARLINK-1407,45703,53.0365,0.0011476,15.54939618,394.54689625644187,410.1094198872479,1 45703U 20035AY  26039.42869060  .00110770  00000+0  16069-2 0  9993,2 45703  53.0365  97.7044 0011476   0.4383 359.6635 15.54939618315738
STARLINK-1411,45706,53.0459,0.0003921,15.56772856,394.3475142484267,399.6605798575265,1 45706U 20035BB  26039.52835530  .00065118  00000+0  89274-3 0  9996,2 45706  53.0459 123.3233 0003921  12.0395 348.0709 15.56772856315374
STARLINK-1423,45710,53.0518,0.000294,15.47392293,422.35791686133143,426.3577838333358,1 45710U 20035BF  26039.91670139  .00079566  00000+0  15223-2 0  9990,2 45710  53.0518 160.0511 0002940   3.8762 110.2361 15.47392293  5853
STARLINK-1433,45711,53.0516,0.0003413,15.4938875,416.1933512413807,420.8327445640798,1 45711U 20035BG  26039.91670139  .00062098  00000+0  11124-2 0  9999,2 45711  53.0516 159.5235 0003413 357.0224 124.2515 15.49388750  5762
STARLINK-1434,45712,53.0504,0.0001443,15.23849314,493.25121214022056,495.2345809783683,1 45712U 20035BH  26039.60504196  .00054236  00000+0  22177-2 0  9990,2 45712  53.0504 154.4386 0001443 352.1931   7.9042 15.23849314314959
STARLINK-1465,45731,53.0546,0.0003384,15.45394786,427.9143711290344,432.52226600864196,1 45731U 20038B   26039.91670139  .00134263  00000+0  27259-2 0  9994,2 45731  53.0546   0.7225 0003384 111.1784 300.6426 15.45394786  5864
STARLINK-1471,45735,53.047,0.0004421,15.47248419,421.77197016886475,427.7871089731525,1 45735U 20038F   26039.91670139  .00017751  00000+0  35055-3 0  9994,2 45735  53.0470 279.6905 0004421 124.9020 237.3727 15.47248419  5968
STARLINK-1474,45738,53.0228,0.0005402,16.01698967,266.12233218840083,273.3046698697135,1 45738U 20038J   26039.75101902  .00427660  91451-4  74201-3 0  9991,2 45738  53.0228 211.2560 0005402 273.5754  86.4657 16.01698967314007
STARLINK-1480,45741,53.0545,0.0010962,15.43697762,427.7383425644921,442.67591823598195,1 45741U 20038M   26039.31387896  .00102492  00000+0  22116-2 0  9990,2 45741  53.0545 357.3258 0010962  76.2027 284.0198 15.43697762311939
STARLINK-1500,45744,53.0381,0.0004318,15.3310375,463.6031431192905,469.51422231088327,1 45744U 20038Q   26039.03165249  .00025854  00000+0  80572-3 0  9995,2 45744  53.0381 331.6876 0004318 126.5382 233.6017 15.33103750312267
STARLINK-1504,45746,53.0236,0.0004415,15.51181516,410.2768464442606,416.27366346538565,1 45746U 20038S   26039.83955014  .00025907  00000+0  44202-3 0  9991,2 45746  53.0236 281.1506 0004415 112.4833 247.6643 15.51181516313032
STARLINK-1506,45747,53.0753,0.0004748,15.25346032,486.4856915527371,493.00743378384686,1 45747U 20038T   26039.05067181  .00009976  00000+0  40331-3 0  9992,2 45747  53.0753 339.3559 0004748 135.1257 225.0125 15.25346032312167
STARLINK-1464,45751,53.054,0.0004295,15.40850622,440.6676152729542,446.5274852516295,1 45751U 20038X   26039.27892012  .00095093  00000+0  22634-2 0  9990,2 45751  53.0540 344.1354 0004295 106.2422 253.9055 15.40850622312112
STARLINK-1477,45754,53.0519,0.0001095,15.12742322,527.0849957158807,528.5974049417528,1 45754U 20038AA  26039.11440057  .00053591  00000+0  30167-2 0  9991,2 45754  53.0519 347.1929 0001095  75.2290 284.8823 15.12742322312050
STARLINK-1478,45755,53.0557,0.0007696,15.49480811,413.01333933952446,423.4743287192623,1 45755U 20038AB  26039.20605615  .00112393  00000+0  19859-2 0  9996,2 45755  53.0557 339.8003 0007696 103.3463 256.8404 15.49480811312159
STARLINK-1484,45756,53.0057,0.0002622,15.85646361,312.75054875850583,316.2601704118724,1 45756U 20038AC  26039.91670139  .00251945  00000+0  99256-3 0  9995,2 45756  53.0057 203.8745 0002622 265.5281 132.8328 15.85646361  5949
STARLINK-1493,45759,53.0546,0.0001996,15.42979018,435.9624426055725,438.68317416107857,1 45759U 20038AF  26039.80915377  .00086415  00000+0  19194-2 0  9992,2 45759  53.0546 342.2205 0001996 111.0196 249.1023 15.42979018312178
STARLINK-1494,45760,53.0503,0.0002084,15.68287578,362.3952342084531,365.2052736558917,1 45760U 20038AG  26039.10213464  .00076359  00000+0  66712-3 0  9990,2 45760  53.0503 298.0817 0002084 156.8301 203.2809 15.68287578312741
STARLINK-1502,45764,53.0545,0.0001693,15.36792646,454.4440683814428,456.75797207509277,1 45764U 20038AL  26039.91670139  .00657958  00000+0  16750-1 0  9994,2 45764  53.0545 342.8785 0001693  92.6215  91.4228 15.36792646  5843
STARLINK-1470,45772,53.0505,0.0002335,15.25291318,488.30711191824776,491.5144902413522,1 45772U 20038AU  26039.21265356  .00023341  00000+0  92565-3 0  9990,2 45772  53.0505 310.8319 0002335 125.6407 234.4808 15.25291318312572
STARLINK-1482,45773,53.1536,0.000126,15.29291228,477.0659779923071,478.79370683659545,1 45773U 20038AV  26039.83335647  .00058956  00000+0  20433-2 0  9994,2 45773  53.1536 324.9928 0001260  79.5937  71.0771 15.29291228  5837
STARLINK-1496,45780,53.0566,0.0009472,15.4316001,430.33479111629185,443.24498861645407,1 45780U 20038BC  26039.02303082  .00088639  00000+0  19534-2 0  9992,2 45780  53.0566 319.1855 0009472 108.9347 251.2685 15.43160010312429
STARLINK-1497,45781,53.0192,0.0006407,16.15186037,228.41917285922682,236.89024135271302,1 45781U 20038BD  26039.67762285  .01244745  11170-2  91515-3 0  9994,2 45781  53.0192 223.2481 0006407 269.5517  90.4784 16.15186037313839
STARLINK-1513,45786,53.1573,0.0001574,15.29368834,476.61879674123793,478.77701356937996,1 45786U 20038BJ  26039.83335647 -.00033963  00000+0 -11695-2 0  9991,2 45786  53.1573 325.1253 0001574  97.2566   0.7480 15.29368834  5765
